{
    "links": {
        "self": "http://www.neowsapp.com/rest/v1/neo/3799864?api_key=iIulBulltgU6a56xZRHN4H3l9WmuAYTsLGpBGhQ2"
    },
    "id": "3799864",
    "neo_reference_id": "3799864",
    "name": "(2018 DN4)",
    "designation": "2018 DN4",
    "nasa_jpl_url": "http://ssd.jpl.nasa.gov/sbdb.cgi?sstr=3799864",
    "absolute_magnitude_h": 28.433,
    "estimated_diameter": {
        "kilometers": {
            "estimated_diameter_min": 0.0054695926,
            "estimated_diameter_max": 0.0122303808
        },
        "meters": {
            "estimated_diameter_min": 5.4695925658,
            "estimated_diameter_max": 12.2303807864
        },
        "miles": {
            "estimated_diameter_min": 0.0033986462,
            "estimated_diameter_max": 0.0075996039
        },
        "feet": {
            "estimated_diameter_min": 17.9448580737,
            "estimated_diameter_max": 40.1259224993
        }
    },
    "is_potentially_hazardous_asteroid": false,
    "close_approach_data": [
        {
            "close_approach_date": "2018-02-24",
            "close_approach_date_full": "2018-Feb-24 15:17",
            "epoch_date_close_approach": 1519485420000,
            "relative_velocity": {
                "kilometers_per_second": "18.1163390191",
                "kilometers_per_hour": "65218.820468647",
                "miles_per_hour": "40524.4387517546"
            },
            "miss_distance": {
                "astronomical": "0.0014117636",
                "lunar": "0.5491760404",
                "kilometers": "211196.827503532",
                "miles": "131231.6233194616"
            },
            "orbiting_body": "Earth"
        },
        {
            "close_approach_date": "2018-02-24",
            "close_approach_date_full": "2018-Feb-24 16:22",
            "epoch_date_close_approach": 1519489320000,
            "relative_velocity": {
                "kilometers_per_second": "17.0918812408",
                "kilometers_per_hour": "61530.7724669059",
                "miles_per_hour": "38232.8291475616"
            },
            "miss_distance": {
                "astronomical": "0.0012849837",
                "lunar": "0.4998586593",
                "kilometers": "192230.824504719",
                "miles": "119446.6955303622"
            },
            "orbiting_body": "Moon"
        }
    ],
    "orbital_data": {
        "orbit_id": "1",
        "orbit_determination_date": "2018-03-13 06:12:28",
        "first_observation_date": "2018-02-26",
        "last_observation_date": "2018-02-26",
        "data_arc_in_days": null,
        "observations_used": 10,
        "orbit_uncertainty": "9",
        "minimum_orbit_intersection": ".00063883",
        "jupiter_tisserand_invariant": "3.353",
        "epoch_osculation": "2458175.5",
        "eccentricity": ".6788040903654465",
        "semi_major_axis": "2.160097390739136",
        "inclination": "3.800731643792184",
        "ascending_node_longitude": "335.0599510388031",
        "orbital_period": "1159.600583824306",
        "perihelion_distance": ".6938144463176823",
        "perihelion_argument": "105.6774587251745",
        "aphelion_distance": "3.62638033516059",
        "perihelion_time": "2458130.278119965827",
        "mean_anomaly": "14.03921060354423",
        "mean_motion": ".3104517236553447",
        "equinox": "J2000",
        "orbit_class": {
            "orbit_class_type": "APO",
            "orbit_class_description": "Near-Earth asteroid orbits which cross the Earth’s orbit similar to that of 1862 Apollo",
            "orbit_class_range": "a (semi-major axis) > 1.0 AU; q (perihelion) < 1.017 AU"
        }
    },
    "is_sentry_object": false
}